NORAD_CAT_ID,OBJECT_NAME,OBJECT_TYPE,EPOCH,MEAN_MOTION,ECCENTRICITY,INCLINATION,RA_OF_ASC_NODE,ARG_OF_PERICENTER,MEAN_ANOMALY,BSTAR,MEAN_MOTION_DOT,MEAN_MOTION_DDOT,TLE_LINE0,TLE_LINE1,TLE_LINE2,SEMIMAJOR_AXIS,PERIOD,APOGEE,PERIGEE,DECAYED
53164.0,STARLINK-4116,PAYLOAD,2024-02-14 22:56:01,15.08842712,0.0001151,53.2182,307.769,105.2743,254.8376,0.00015893,2.243e-05,0.0,0 STARLINK-4116,1 53164U 22083AJ  24045.95557066  .00002243  00000-0  15893-3 0  9992,2 53164  53.2182 307.7690 0001151 105.2743 254.8376 15.08842712 87574,6917.872,95.437,540.533,538.941,0.0
53164.0,STARLINK-4116,PAYLOAD,2024-02-15 00:31:24,15.08845825,0.0001204,53.2188,307.4715,111.0327,249.0794,0.00019101,2.754e-05,0.0,0 STARLINK-4116,1 53164U 22083AJ  24046.02180850  .00002754  00000-0  19101-3 0  9997,2 53164  53.2188 307.4715 0001204 111.0327 249.0794 15.08845825 88217,6917.863,95.437,540.56,538.895,0.0
53164.0,STARLINK-4116,PAYLOAD,2024-02-15 18:00:39,15.08835517,0.0001123,53.2174,304.2003,93.9873,266.1247,2.593e-05,1.25e-06,0.0,0 STARLINK-4116,1 53164U 22083AJ  24046.75045868  .00000125  00000-0  25930-4 0  9994,2 53164  53.2174 304.2003 0001123  93.9873 266.1247 15.08835517 88323,6917.894,95.438,540.536,538.982,0.0
53164.0,STARLINK-4116,PAYLOAD,2024-02-15 22:46:49,15.08833851,0.0001176,53.2166,303.3084,83.1596,276.953,-1.0703e-05,-4.58e-06,0.0,0 STARLINK-4116,1 53164U 22083AJ  24046.94918052 -.00000458  00000-0 -10703-4 0  9992,2 53164  53.2166 303.3084 0001176  83.1596 276.9530 15.08833851 87720,6917.899,95.438,540.578,538.951,0.0
53164.0,STARLINK-4116,PAYLOAD,2024-02-16 09:54:31,15.08837721,0.0001254,53.2167,301.2252,85.1624,274.9511,4.4114e-05,4.14e-06,0.0,0 STARLINK-4116,1 53164U 22083AJ  24047.41285954  .00000414  00000-0  44114-4 0  9996,2 53164  53.2167 301.2252 0001254  85.1624 274.9511 15.08837721 87790,6917.887,95.438,540.62,538.885,0.0
53164.0,STARLINK-4116,PAYLOAD,2024-02-16 22:37:35,15.08843483,0.0001204,53.2156,298.8452,86.3297,273.7833,3.9846e-05,3.46e-06,0.0,0 STARLINK-4116,1 53164U 22083AJ  24047.94277700  .00000346  00000-0  39846-4 0  9994,2 53164  53.2156 298.8452 0001204  86.3297 273.7833 15.08843483 87870,6917.87,95.437,540.568,538.902,0.0
53164.0,STARLINK-4116,PAYLOAD,2024-02-17 01:48:21,15.08850948,0.0001337,53.2171,298.2502,85.7215,274.393,0.00013893,1.924e-05,0.0,0 STARLINK-4116,1 53164U 22083AJ  24048.07525241  .00001924  00000-0  13893-3 0  9991,2 53164  53.2171 298.2502 0001337  85.7215 274.3930 15.08850948 88529,6917.847,95.437,540.637,538.787,0.0
53164.0,STARLINK-4116,PAYLOAD,2024-02-17 09:45:17,15.08845693,0.0001197,53.216,296.7662,107.0134,253.099,9.3979e-05,1.208e-05,0.0,0 STARLINK-4116,1 53164U 22083AJ  24048.40645551  .00001208  00000-0  93979-4 0  9994,2 53164  53.2160 296.7662 0001197 107.0134 253.0990 15.08845693 87945,6917.863,95.437,540.556,538.9,0.0
53164.0,STARLINK-4116,PAYLOAD,2024-02-17 22:28:23,15.08840147,0.0001057,53.2144,294.3846,92.6617,267.4496,0.0001402,1.944e-05,0.0,0 STARLINK-4116,1 53164U 22083AJ  24048.93637886  .00001944  00000-0  14020-3 0  9990,2 53164  53.2144 294.3846 0001057  92.6617 267.4496 15.08840147 88024,6917.88,95.438,540.476,539.014,0.0
53164.0,STARLINK-4116,PAYLOAD,2024-02-18 09:36:04,15.08844262,0.0001241,53.2153,292.3032,92.4009,267.7125,0.00013189,1.812e-05,0.0,0 STARLINK-4116,1 53164U 22083AJ  24049.40005733  .00001812  00000-0  13189-3 0  9992,2 53164  53.2153 292.3032 0001241  92.4009 267.7125 15.08844262 88098,6917.867,95.437,540.591,538.874,0.0
53164.0,STARLINK-4116,PAYLOAD,2024-02-18 22:19:09,15.08844248,0.0001192,53.2153,289.926,89.5699,270.5429,0.00011112,1.481e-05,0.0,0 STARLINK-4116,1 53164U 22083AJ  24049.92997679  .00001481  00000-0  11112-3 0  9994,2 53164  53.2153 289.9260 0001192  89.5699 270.5429 15.08844248 88172,6917.867,95.437,540.557,538.908,0.0
53164.0,STARLINK-4116,PAYLOAD,2024-02-19 09:26:52,15.08834737,0.0001864,53.216,287.8429,90.0768,270.0438,-0.00011853,-2.174e-05,0.0,0 STARLINK-4116,1 53164U 22083AJ  24050.39366245 -.00002174  00000-0 -11853-3 0  9990,2 53164  53.2160 287.8429 0001864  90.0768 270.0438 15.08834737 88878,6917.896,95.438,541.051,538.472,0.0
53164.0,STARLINK-4116,PAYLOAD,2024-02-19 22:09:57,15.0883158,0.0001387,53.2161,285.4647,88.891,271.2241,-6.9138e-05,-1.388e-05,0.0,0 STARLINK-4116,1 53164U 22083AJ  24050.92358566 -.00001388  00000-0 -69138-4 0  9992,2 53164  53.2161 285.4647 0001387  88.8910 271.2241 15.08831580 88327,6917.906,95.438,540.731,538.812,0.0
53164.0,STARLINK-4116,PAYLOAD,2024-02-20 01:20:44,15.08834702,0.0001401,53.2171,284.8695,92.9528,267.1625,-1.0125e-05,-4.49e-06,0.0,0 STARLINK-4116,1 53164U 22083AJ  24051.05606705 -.00000449  00000-0 -10125-4 0  9997,2 53164  53.2171 284.8695 0001401  92.9528 267.1625 15.08834702 88343,6917.897,95.438,540.731,538.792,0.0
53164.0,STARLINK-4116,PAYLOAD,2024-02-20 18:49:57,15.08846156,0.0001384,53.2174,281.5996,87.4308,272.6842,0.00013549,1.869e-05,0.0,0 STARLINK-4116,1 53164U 22083AJ  24051.78469711  .00001869  00000-0  13549-3 0  9998,2 53164  53.2174 281.5996 0001384  87.4308 272.6842 15.08846156 89089,6917.862,95.437,540.684,538.769,0.0
53164.0,STARLINK-4116,PAYLOAD,2024-02-20 22:00:43,15.08851715,0.0001378,53.2178,281.0044,87.0153,273.0997,0.00012579,1.715e-05,0.0,0 STARLINK-4116,1 53164U 22083AJ  24051.91717363  .00001715  00000-0  12579-3 0  9994,2 53164  53.2178 281.0044 0001378  87.0153 273.0997 15.08851715 88474,6917.845,95.437,540.663,538.756,0.0
53164.0,STARLINK-4116,PAYLOAD,2024-02-21 01:11:30,15.08851342,0.00015,53.2171,280.4099,87.2613,272.8551,0.00021164,3.083e-05,0.0,0 STARLINK-4116,1 53164U 22083AJ  24052.04965619  .00003083  00000-0  21164-3 0  9998,2 53164  53.2171 280.4099 0001500  87.2613 272.8551 15.08851342 88491,6917.846,95.437,540.748,538.673,0.0
53164.0,STARLINK-4116,PAYLOAD,2024-02-21 20:16:08,15.08839279,0.0001648,53.2158,276.8351,105.6229,254.4945,9.8868e-05,1.286e-05,0.0,0 STARLINK-4116,1 53164U 22083AJ  24052.84454000  .00001286  00000-0  98868-4 0  9992,2 53164  53.2158 276.8351 0001648 105.6229 254.4945 15.08839279 89249,6917.883,95.438,540.888,538.608,0.0
53164.0,STARLINK-4116,PAYLOAD,2024-02-21 21:51:31,15.08839856,0.0001361,53.2165,276.5438,83.4408,276.6739,0.0001516,2.126e-05,0.0,0 STARLINK-4116,1 53164U 22083AJ  24052.91078168  .00002126  00000-0  15160-3 0  9994,2 53164  53.2165 276.5438 0001361  83.4408 276.6739 15.08839856 88623,6917.881,95.438,540.687,538.804,0.0
53164.0,STARLINK-4116,PAYLOAD,2024-02-22 07:23:50,15.08840607,0.000138,53.2154,274.7606,84.4168,275.6982,2.6885e-05,1.4e-06,0.0,0 STARLINK-4116,1 53164U 22083AJ  24053.30821994  .00000140  00000-0  26885-4 0  9992,2 53164  53.2154 274.7606 0001380  84.4168 275.6982 15.08840607 88684,6917.879,95.438,540.698,538.789,0.0
53164.0,STARLINK-4116,PAYLOAD,2024-02-22 21:42:18,15.08842607,0.0001365,53.2154,272.0842,91.6264,268.4885,-5.1745e-05,-1.111e-05,0.0,0 STARLINK-4116,1 53164U 22083AJ  24053.90437783 -.00001111  00000-0 -51745-4 0  9991,2 53164  53.2154 272.0842 0001365  91.6264 268.4885 15.08842607 88771,6917.872,95.437,540.682,538.793,0.0
53164.0,STARLINK-4116,PAYLOAD,2024-02-23 07:14:37,15.08838892,0.0001336,53.2151,270.2998,95.8947,264.2197,-2.8205e-05,-7.37e-06,0.0,0 STARLINK-4116,1 53164U 22083AJ  24054.30181959 -.00000737  00000-0 -28205-4 0  9995,2 53164  53.2151 270.2998 0001336  95.8947 264.2197 15.08838892 88830,6917.884,95.438,540.673,538.825,0.0
53164.0,STARLINK-4116,PAYLOAD,2024-02-23 19:57:43,15.08829974,0.0001406,53.2166,267.9216,93.1792,266.9361,3.0148e-06,-2.4e-06,0.0,0 STARLINK-4116,1 53164U 22083AJ  24054.83175253 -.00000240  00000-0  30148-5 0  9991,2 53164  53.2166 267.9216 0001406  93.1792 266.9361 15.08829974 89541,6917.911,95.438,540.749,538.803,0.0
53164.0,STARLINK-4116,PAYLOAD,2024-02-23 21:33:06,15.08817174,0.0001495,53.2171,267.6241,96.6439,263.4724,0.00020128,2.915e-05,0.0,0 STARLINK-4116,1 53164U 22083AJ  24054.89799533  .00002915  00000-0  20128-3 0  9995,2 53164  53.2171 267.6241 0001495  96.6439 263.4724 15.08817174 88921,6917.95,95.439,540.849,538.781,0.0
53164.0,STARLINK-4116,PAYLOAD,2024-02-24 07:05:24,15.08838647,0.0001401,53.217,265.8392,88.0585,272.0567,2.8334e-05,1.63e-06,0.0,0 STARLINK-4116,1 53164U 22083AJ  24055.29542806  .00000163  00000-0  28334-4 0  9990,2 53164  53.2170 265.8392 0001401  88.0585 272.0567 15.08838647 89617,6917.885,95.438,540.719,538.78,0.0
53164.0,STARLINK-4116,PAYLOAD,2024-02-25 13:17:44,15.08841255,0.0001377,53.2163,260.1873,85.576,274.539,0.00020445,2.967e-05,0.0,0 STARLINK-4116,1 53164U 22083AJ  24056.55398404  .00002967  00000-0  20445-3 0  9991,2 53164  53.2163 260.1873 0001377  85.5760 274.5390 15.08841255 89171,6917.877,95.437,540.694,538.789,0.0
53164.0,STARLINK-4116,PAYLOAD,2024-02-25 19:39:16,15.08847439,0.0001272,53.2153,258.999,86.7213,273.3925,0.00025561,3.783e-05,0.0,0 STARLINK-4116,1 53164U 22083AJ  24056.81893955  .00003783  00000-0  25561-3 0  9992,2 53164  53.2153 258.9990 0001272  86.7213 273.3925 15.08847439 89840,6917.858,95.437,540.603,538.843,0.0
53164.0,STARLINK-4116,PAYLOAD,2024-02-26 19:30:03,15.08847841,0.000123,53.2155,254.5378,80.9987,279.1145,-1.6462e-05,-5.5e-06,0.0,0 STARLINK-4116,1 53164U 22083AJ  24057.81254376 -.00000550  00000-0 -16462-4 0  9993,2 53164  53.2155 254.5378 0001230  80.9987 279.1145 15.08847841 89993,6917.856,95.437,540.572,538.871,0.0
53164.0,STARLINK-4116,PAYLOAD,2024-02-26 22:40:50,15.08847769,0.0001322,53.2149,253.942,82.8959,277.2184,-5.0493e-05,-1.092e-05,0.0,0 STARLINK-4116,1 53164U 22083AJ  24057.94502372 -.00001092  00000-0 -50493-4 0  9993,2 53164  53.2149 253.9420 0001322  82.8959 277.2184 15.08847769 89383,6917.857,95.437,540.636,538.807,0.0
53164.0,STARLINK-4116,PAYLOAD,2024-02-27 06:37:45,15.08844532,0.0001356,53.2151,252.4551,85.7004,274.4143,-6.0937e-05,-1.258e-05,0.0,0 STARLINK-4116,1 53164U 22083AJ  24058.27622417 -.00001258  00000-0 -60937-4 0  9991,2 53164  53.2151 252.4551 0001356  85.7004 274.4143 15.08844532 89430,6917.867,95.437,540.67,538.793,0.0
